{
  "type": "FeatureCollection",
  "features": [
    {
      "type": "Feature",
      "properties": {
        "norad_id": 43683,
        "name": "BEIDOU-3 G1 (C59)",
        "group": "gnss",
        "lat": NaN,
        "lon": NaN,
        "alt_km": NaN,
        "timestamp": "2025-12-01T02:46:59.660613+00:00",
        "meta": {
          "OBJECT_NAME": "BEIDOU-3 G1 (C59)",
          "OBJECT_ID": "2018-085A",
          "EPOCH": "2025-11-28T14:34:02.383392",
          "MEAN_MOTION": 1.00265618,
          "ECCENTRICITY": 0.00016155,
          "INCLINATION": 2.5692,
          "RA_OF_ASC_NODE": 103.4187,
          "ARG_OF_PERICENTER": 56.2445,
          "MEAN_ANOMALY": 266.5866,
          "EPHEMERIS_TYPE": 0,
          "CLASSIFICATION_TYPE": "U",
          "NORAD_CAT_ID": 43683,
          "ELEMENT_SET_NO": 999,
          "REV_AT_EPOCH": 2604,
          "BSTAR": 0,
          "MEAN_MOTION_DOT": -2.57e-06,
          "MEAN_MOTION_DDOT": 0
        }
      },
      "geometry": {
        "type": "Point",
        "coordinates": [
          NaN,
          NaN
        ]
      }
    },
    {
      "type": "Feature",
      "properties": {
        "norad_id": 43687,
        "name": "COSMOS 2529 (757)",
        "group": "gnss",
        "lat": NaN,
        "lon": NaN,
        "alt_km": NaN,
        "timestamp": "2025-12-01T02:46:59.660631+00:00",
        "meta": {
          "OBJECT_NAME": "COSMOS 2529 (757)",
          "OBJECT_ID": "2018-086A",
          "EPOCH": "2025-11-30T05:10:11.501760",
          "MEAN_MOTION": 2.13101906,
          "ECCENTRICITY": 0.00073766,
          "INCLINATION": 64.2916,
          "RA_OF_ASC_NODE": 199.3117,
          "ARG_OF_PERICENTER": 254.6594,
          "MEAN_ANOMALY": 105.3481,
          "EPHEMERIS_TYPE": 0,
          "CLASSIFICATION_TYPE": "U",
          "NORAD_CAT_ID": 43687,
          "ELEMENT_SET_NO": 999,
          "REV_AT_EPOCH": 5504,
          "BSTAR": 0,
          "MEAN_MOTION_DOT": 9.1e-07,
          "MEAN_MOTION_DDOT": 0
        }
      },
      "geometry": {
        "type": "Point",
        "coordinates": [
          NaN,
          NaN
        ]
      }
    },
    {
      "type": "Feature",
      "properties": {
        "norad_id": 43706,
        "name": "BEIDOU-3 M17 (C36)",
        "group": "gnss",
        "lat": NaN,
        "lon": NaN,
        "alt_km": NaN,
        "timestamp": "2025-12-01T02:46:59.660649+00:00",
        "meta": {
          "OBJECT_NAME": "BEIDOU-3 M17 (C36)",
          "OBJECT_ID": "2018-093A",
          "EPOCH": "2025-11-30T05:23:59.265600",
          "MEAN_MOTION": 1.86228182,
          "ECCENTRICITY": 0.00063751,
          "INCLINATION": 54.1727,
          "RA_OF_ASC_NODE": 189.0472,
          "ARG_OF_PERICENTER": 306.0351,
          "MEAN_ANOMALY": 138.1008,
          "EPHEMERIS_TYPE": 0,
          "CLASSIFICATION_TYPE": "U",
          "NORAD_CAT_ID": 43706,
          "ELEMENT_SET_NO": 999,
          "REV_AT_EPOCH": 4783,
          "BSTAR": 0,
          "MEAN_MOTION_DOT": 1.11e-06,
          "MEAN_MOTION_DDOT": 0
        }
      },
      "geometry": {
        "type": "Point",
        "coordinates": [
          NaN,
          NaN
        ]
      }
    },
    {
      "type": "Feature",
      "properties": {
        "norad_id": 43707,
        "name": "BEIDOU-3 M18 (C37)",
        "group": "gnss",
        "lat": NaN,
        "lon": NaN,
        "alt_km": NaN,
        "timestamp": "2025-12-01T02:46:59.660667+00:00",
        "meta": {
          "OBJECT_NAME": "BEIDOU-3 M18 (C37)",
          "OBJECT_ID": "2018-093B",
          "EPOCH": "2025-11-29T23:03:45.514944",
          "MEAN_MOTION": 1.8622645,
          "ECCENTRICITY": 0.00063783,
          "INCLINATION": 54.1734,
          "RA_OF_ASC_NODE": 189.048,
          "ARG_OF_PERICENTER": 350.6014,
          "MEAN_ANOMALY": 9.4764,
          "EPHEMERIS_TYPE": 0,
          "CLASSIFICATION_TYPE": "U",
          "NORAD_CAT_ID": 43707,
          "ELEMENT_SET_NO": 999,
          "REV_AT_EPOCH": 4782,
          "BSTAR": 0,
          "MEAN_MOTION_DOT": 1.09e-06,
          "MEAN_MOTION_DDOT": 0
        }
      },
      "geometry": {
        "type": "Point",
        "coordinates": [
          NaN,
          NaN
        ]
      }
    },
    {
      "type": "Feature",
      "properties": {
        "norad_id": 43873,
        "name": "GPS BIII-1  (PRN 04)",
        "group": "gnss",
        "lat": NaN,
        "lon": NaN,
        "alt_km": NaN,
        "timestamp": "2025-12-01T02:46:59.660686+00:00",
        "meta": {
          "OBJECT_NAME": "GPS BIII-1  (PRN 04)",
          "OBJECT_ID": "2018-109A",
          "EPOCH": "2025-11-30T14:08:21.287328",
          "MEAN_MOTION": 2.00553142,
          "ECCENTRICITY": 0.0037182,
          "INCLINATION": 55.5595,
          "RA_OF_ASC_NODE": 100.0271,
          "ARG_OF_PERICENTER": 194.4183,
          "MEAN_ANOMALY": 176.096,
          "EPHEMERIS_TYPE": 0,
          "CLASSIFICATION_TYPE": "U",
          "NORAD_CAT_ID": 43873,
          "ELEMENT_SET_NO": 999,
          "REV_AT_EPOCH": 5109,
          "BSTAR": 0,
          "MEAN_MOTION_DOT": 3.3e-07,
          "MEAN_MOTION_DDOT": 0
        }
      },
      "geometry": {
        "type": "Point",
        "coordinates": [
          NaN,
          NaN
        ]
      }
    },
    {
      "type": "Feature",
      "properties": {
        "norad_id": 44204,
        "name": "BEIDOU-3 IGSO-1 (C38)",
        "group": "gnss",
        "lat": NaN,
        "lon": NaN,
        "alt_km": NaN,
        "timestamp": "2025-12-01T02:46:59.660704+00:00",
        "meta": {
          "OBJECT_NAME": "BEIDOU-3 IGSO-1 (C38)",
          "OBJECT_ID": "2019-023A",
          "EPOCH": "2025-11-19T14:15:02.708640",
          "MEAN_MOTION": 1.00252177,
          "ECCENTRICITY": 0.0026966,
          "INCLINATION": 58.4003,
          "RA_OF_ASC_NODE": 39.8168,
          "ARG_OF_PERICENTER": 221.2202,
          "MEAN_ANOMALY": 126.9723,
          "EPHEMERIS_TYPE": 0,
          "CLASSIFICATION_TYPE": "U",
          "NORAD_CAT_ID": 44204,
          "ELEMENT_SET_NO": 999,
          "REV_AT_EPOCH": 510,
          "BSTAR": 0,
          "MEAN_MOTION_DOT": -2.26e-06,
          "MEAN_MOTION_DDOT": 0
        }
      },
      "geometry": {
        "type": "Point",
        "coordinates": [
          NaN,
          NaN
        ]
      }
    },
    {
      "type": "Feature",
      "properties": {
        "norad_id": 44231,
        "name": "BEIDOU-2 G8 (C01)",
        "group": "gnss",
        "lat": NaN,
        "lon": NaN,
        "alt_km": NaN,
        "timestamp": "2025-12-01T02:46:59.660725+00:00",
        "meta": {
          "OBJECT_NAME": "BEIDOU-2 G8 (C01)",
          "OBJECT_ID": "2019-027A",
          "EPOCH": "2025-11-30T19:39:59.546880",
          "MEAN_MOTION": 1.00271144,
          "ECCENTRICITY": 0.0008131,
          "INCLINATION": 1.629,
          "RA_OF_ASC_NODE": 74.6865,
          "ARG_OF_PERICENTER": 255.5094,
          "MEAN_ANOMALY": 179.3301,
          "EPHEMERIS_TYPE": 0,
          "CLASSIFICATION_TYPE": "U",
          "NORAD_CAT_ID": 44231,
          "ELEMENT_SET_NO": 999,
          "REV_AT_EPOCH": 2409,
          "BSTAR": 0,
          "MEAN_MOTION_DOT": -2.25e-06,
          "MEAN_MOTION_DDOT": 0
        }
      },
      "geometry": {
        "type": "Point",
        "coordinates": [
          NaN,
          NaN
        ]
      }
    },
    {
      "type": "Feature",
      "properties": {
        "norad_id": 44299,
        "name": "COSMOS 2534 (758)",
        "group": "gnss",
        "lat": NaN,
        "lon": NaN,
        "alt_km": NaN,
        "timestamp": "2025-12-01T02:46:59.660743+00:00",
        "meta": {
          "OBJECT_NAME": "COSMOS 2534 (758)",
          "OBJECT_ID": "2019-030A",
          "EPOCH": "2025-11-30T04:32:59.601408",
          "MEAN_MOTION": 2.13101977,
          "ECCENTRICITY": 0.00091335,
          "INCLINATION": 64.3652,
          "RA_OF_ASC_NODE": 199.3159,
          "ARG_OF_PERICENTER": 283.4728,
          "MEAN_ANOMALY": 191.1332,
          "EPHEMERIS_TYPE": 0,
          "CLASSIFICATION_TYPE": "U",
          "NORAD_CAT_ID": 44299,
          "ELEMENT_SET_NO": 999,
          "REV_AT_EPOCH": 5068,
          "BSTAR": 0,
          "MEAN_MOTION_DOT": 9.1e-07,
          "MEAN_MOTION_DDOT": 0
        }
      },
      "geometry": {
        "type": "Point",
        "coordinates": [
          NaN,
          NaN
        ]
      }
    }
  ]
}