BEIDOU-3 G1             
1 43683U 18085A   25332.60697203 -.00000257  00000+0  00000+0 0  9997
2 43683   2.5692 103.4187 0001615  56.2445 266.5866  1.00265618 26043
COSMOS 2529 [GLONASS-M] 
1 43687U 18086A   25334.21541090  .00000091  00000+0  00000+0 0  9998
2 43687  64.2916 199.3117 0007376 254.6594 105.3481  2.13101906 55046
BEIDOU-3 M17            
1 43706U 18093A   25334.22499150  .00000111  00000+0  00000+0 0  9991
2 43706  54.1727 189.0472 0006375 306.0351 138.1008  1.86228182 47839
BEIDOU-3 M18            
1 43707U 18093B   25333.96094346  .00000109  00000+0  00000+0 0  9997
2 43707  54.1734 189.0480 0006378 350.6014   9.4764  1.86226450 47825
NAVSTAR 77 (USA 289)    
1 43873U 18109A   25334.58913527  .00000033  00000+0  00000+0 0  9995
2 43873  55.5595 100.0271 0037182 194.4183 176.0960  2.00553142 51099
BEIDOU-3 IGSO-1         
1 44204U 19023A   25323.59378135 -.00000226  00000+0  00000+0 0  9994
2 44204  58.4003  39.8168 0026966 221.2202 126.9723  1.00252177  5102
BEIDOU-2 G8             
1 44231U 19027A   25334.81943920 -.00000225  00000+0  00000+0 0  9994
2 44231   1.6290  74.6865 0008131 255.5094 179.3301  1.00271144 24092
COSMOS 2534 [GLONASS-M] 
1 44299U 19030A   25334.18957872  .00000091  00000+0  00000+0 0  9993
2 44299  64.3652 199.3159 0009133 283.4728 191.1332  2.13101977 50683
